[{"OBJECT_NAME":"STARLINK-5385","OBJECT_ID":"2022-177B","EPOCH":"2026-03-08T14:58:13.496448","MEAN_MOTION":15.02539294,"ECCENTRICITY":0.00013771,"INCLINATION":43.0019,"RA_OF_ASC_NODE":139.2425,"ARG_OF_PERICENTER":260.3181,"MEAN_ANOMALY":99.7505,"EPHEMERIS_TYPE":0,"CLASSIFICATION_TYPE":"U","NORAD_CAT_ID":54821,"ELEMENT_SET_NO":999,"REV_AT_EPOCH":17679,"BSTAR":8.519823e-5,"MEAN_MOTION_DOT":9.48e-6,"MEAN_MOTION_DDOT":0},{"OBJECT_NAME":"COSMOS 374 DEB","OBJECT_ID":"1970-089D","EPOCH":"2026-03-09T23:15:59.694624","MEAN_MOTION":14.41356541,"ECCENTRICITY":0.03141885,"INCLINATION":62.9412,"RA_OF_ASC_NODE":312.2031,"ARG_OF_PERICENTER":321.7041,"MEAN_ANOMALY":36.2082,"EPHEMERIS_TYPE":0,"CLASSIFICATION_TYPE":"U","NORAD_CAT_ID":4617,"ELEMENT_SET_NO":999,"REV_AT_EPOCH":75367,"BSTAR":0.00087541889,"MEAN_MOTION_DOT":4.985e-5,"MEAN_MOTION_DDOT":0}]
